{"type": "FeatureCollection", "features": [ {"type": "Feature", "properties": {"norad_id": 60453, "name": "LEGION 4", "group": "resource", "lat": -39.876570192190194, "lon": -1.3318825869008928, "alt_km": 515.3807859949393, "timestamp": "2025-12-10T05:46:13.455278+00:00", "meta": {"OBJECT_NAME": "LEGION 4", "OBJECT_ID": "2024-146B", "EPOCH": "2025-12-09T15:49:13.717056", "MEAN_MOTION": 15.15774012, "ECCENTRICITY": 0.0009746, "INCLINATION": 45.0385, "RA_OF_ASC_NODE": 58.3883, "ARG_OF_PERICENTER": 295.1374, "MEAN_ANOMALY": 64.8494, "EPHEMERIS_TYPE": 0, "CLASSIFICATION_TYPE": "U", "NORAD_CAT_ID": 60453, "ELEMENT_SET_NO": 999, "REV_AT_EPOCH": 7211, "BSTAR": 0.00042107, "MEAN_MOTION_DOT": 7.925e-05, "MEAN_MOTION_DDOT": 0}, "tle": {"line1": "1 60453U 24146B   25343.65918654  .00007925  00000+0  42107-3 0  9995", "line2": "2 60453  45.0385  58.3883 0009746 295.1374  64.8494 15.15774012 72116"}}, "geometry": {"type": "Point", "coordinates": [-1.3318825869008928, -39.876570192190194]}}, {"type": "Feature", "properties": {"norad_id": 60989, "name": "SENTINEL-2C", "group": "resource", "lat": 78.86538392130578, "lon": -73.24216733034407, "alt_km": 780.7879383490954, "timestamp": "2025-12-10T05:46:13.455291+00:00", "meta": {"OBJECT_NAME": "SENTINEL-2C", "OBJECT_ID": "2024-157A", "EPOCH": "2025-12-09T10:51:24.113952", "MEAN_MOTION": 14.30815888, "ECCENTRICITY": 0.00011938, "INCLINATION": 98.5685, "RA_OF_ASC_NODE": 55.9822, "ARG_OF_PERICENTER": 97.8773, "MEAN_ANOMALY": 262.2545, "EPHEMERIS_TYPE": 0, "CLASSIFICATION_TYPE": "U", "NORAD_CAT_ID": 60989, "ELEMENT_SET_NO": 999, "REV_AT_EPOCH": 6585, "BSTAR": 0.00014030741, "MEAN_MOTION_DOT": 3.24e-06, "MEAN_MOTION_DDOT": 0}, "tle": {"line1": "1 60989U 24157A   25343.45236243  .00000324  00000+0  14031-3 0  9997", "line2": "2 60989  98.5685  55.9822 0001193  97.8773 262.2545 14.30815888 65857"}}, "geometry": {"type": "Point", "coordinates": [-73.24216733034407, 78.86538392130578]}}, {"type": "Feature", "properties": {"norad_id": 61735, "name": "IONOSFERA-M 1", "group": "resource", "lat": 73.74948766931936, "lon": -177.75178298556344, "alt_km": 808.6184672065174, "timestamp": "2025-12-10T05:46:13.455301+00:00", "meta": {"OBJECT_NAME": "IONOSFERA-M 1", "OBJECT_ID": "2024-199A", "EPOCH": "2025-12-09T20:58:26.603328", "MEAN_MOTION": 14.22713172, "ECCENTRICITY": 0.0001096, "INCLINATION": 98.7412, "RA_OF_ASC_NODE": 213.7441, "ARG_OF_PERICENTER": 25.8037, "MEAN_ANOMALY": 334.3195, "EPHEMERIS_TYPE": 0, "CLASSIFICATION_TYPE": "U", "NORAD_CAT_ID": 61735, "ELEMENT_SET_NO": 999, "REV_AT_EPOCH": 10078, "BSTAR": 8.533e-05, "MEAN_MOTION_DOT": 1.47e-06, "MEAN_MOTION_DDOT": 0}, "tle": {"line1": "1 61735U 24199A   25343.87391902  .00000147  00000+0  85330-4 0  9997", "line2": "2 61735  98.7412 213.7441 0001096  25.8037 334.3195 14.22713172100782"}}, "geometry": {"type": "Point", "coordinates": [-177.75178298556344, 73.74948766931936]}}, {"type": "Feature", "properties": {"norad_id": 61736, "name": "IONOSFERA-M 2", "group": "resource", "lat": -75.93767854894215, "lon": -3.8714885729233752, "alt_km": 824.4253176161164, "timestamp": "2025-12-10T05:46:13.455311+00:00", "meta": {"OBJECT_NAME": "IONOSFERA-M 2", "OBJECT_ID": "2024-199B", "EPOCH": "2025-12-09T21:48:20.371968", "MEAN_MOTION": 14.22715383, "ECCENTRICITY": 0.0001582, "INCLINATION": 98.7403, "RA_OF_ASC_NODE": 213.691, "ARG_OF_PERICENTER": 114.2499, "MEAN_ANOMALY": 245.8844, "EPHEMERIS_TYPE": 0, "CLASSIFICATION_TYPE": "U", "NORAD_CAT_ID": 61736, "ELEMENT_SET_NO": 999, "REV_AT_EPOCH": 10391, "BSTAR": 8.5671e-05, "MEAN_MOTION_DOT": 1.48e-06, "MEAN_MOTION_DDOT": 0}, "tle": {"line1": "1 61736U 24199B   25343.90856912  .00000148  00000+0  85671-4 0  9998", "line2": "2 61736  98.7403 213.6910 0001582 114.2499 245.8844 14.22715383103919"}}, "geometry": {"type": "Point", "coordinates": [-3.8714885729233752, -75.93767854894215]}}, {"type": "Feature", "properties": {"norad_id": 63772, "name": "BIOMASS", "group": "resource", "lat": 47.86535220284079, "lon": 160.26286134192992, "alt_km": 663.9152840667102, "timestamp": "2025-12-10T05:46:13.455321+00:00", "meta": {"OBJECT_NAME": "BIOMASS", "OBJECT_ID": "2025-090A", "EPOCH": "2025-12-09T18:05:44.042208", "MEAN_MOTION": 14.67536805, "ECCENTRICITY": 0.0001201, "INCLINATION": 98.0703, "RA_OF_ASC_NODE": 168.8071, "ARG_OF_PERICENTER": 77.0089, "MEAN_ANOMALY": 283.1249, "EPHEMERIS_TYPE": 0, "CLASSIFICATION_TYPE": "U", "NORAD_CAT_ID": 63772, "ELEMENT_SET_NO": 999, "REV_AT_EPOCH": 3290, "BSTAR": 0.0004616, "MEAN_MOTION_DOT": 2.57e-05, "MEAN_MOTION_DDOT": 0}, "tle": {"line1": "1 63772U 25090A   25343.75398197  .00002570  00000+0  46160-3 0  9990", "line2": "2 63772  98.0703 168.8071 0001201  77.0089 283.1249 14.67536805 32908"}}, "geometry": {"type": "Point", "coordinates": [160.26286134192992, 47.86535220284079]}}, {"type": "Feature", "properties": {"norad_id": 64694, "name": "GOSAT-GW (IBUKI GW)", "group": "resource", "lat": -75.53836148670938, "lon": 66.55355853977434, "alt_km": 677.2064009798287, "timestamp": "2025-12-10T05:46:13.455332+00:00", "meta": {"OBJECT_NAME": "GOSAT-GW (IBUKI GW)", "OBJECT_ID": "2025-141A", "EPOCH": "2025-12-08T18:14:08.043648", "MEAN_MOTION": 14.67565462, "ECCENTRICITY": 0.00014946, "INCLINATION": 98.0423, "RA_OF_ASC_NODE": 278.345, "ARG_OF_PERICENTER": 82.5316, "MEAN_ANOMALY": 277.6059, "EPHEMERIS_TYPE": 0, "CLASSIFICATION_TYPE": "U", "NORAD_CAT_ID": 64694, "ELEMENT_SET_NO": 999, "REV_AT_EPOCH": 2391, "BSTAR": 0.00038232231, "MEAN_MOTION_DOT": 2.122e-05, "MEAN_MOTION_DDOT": 0}, "tle": {"line1": "1 64694U 25141A   25342.75981532  .00002122  00000+0  38232-3 0  9995", "line2": "2 64694  98.0423 278.3450 0001494  82.5316 277.6059 14.67565462 23916"}}, "geometry": {"type": "Point", "coordinates": [66.55355853977434, -75.53836148670938]}}, {"type": "Feature", "properties": {"norad_id": 64876, "name": "IONOSFERA-M 3", "group": "resource", "lat": -44.806779782422865, "lon": -45.20035014670908, "alt_km": 827.697275981348, "timestamp": "2025-12-10T05:46:13.455342+00:00", "meta": {"OBJECT_NAME": "IONOSFERA-M 3", "OBJECT_ID": "2025-155A", "EPOCH": "2025-12-09T21:32:12.901920", "MEAN_MOTION": 14.2144, "ECCENTRICITY": 0.0002293, "INCLINATION": 98.5778, "RA_OF_ASC_NODE": 305.844, "ARG_OF_PERICENTER": 64.4717, "MEAN_ANOMALY": 295.6698, "EPHEMERIS_TYPE": 0, "CLASSIFICATION_TYPE": "U", "NORAD_CAT_ID": 64876, "ELEMENT_SET_NO": 999, "REV_AT_EPOCH": 1951, "BSTAR": 9.6782e-05, "MEAN_MOTION_DOT": 1.69e-06, "MEAN_MOTION_DDOT": 0}, "tle": {"line1": "1 64876U 25155A   25343.89737155  .00000169  00000+0  96782-4 0  9992", "line2": "2 64876  98.5778 305.8440 0002293  64.4717 295.6698 14.21440000 19513"}}, "geometry": {"type": "Point", "coordinates": [-45.20035014670908, -44.806779782422865]}}, {"type": "Feature", "properties": {"norad_id": 64877, "name": "IONOSFERA-M 4", "group": "resource", "lat": 43.970352292562794, "lon": 134.46908484211266, "alt_km": 816.3306263276017, "timestamp": "2025-12-10T05:46:13.455352+00:00", "meta": {"OBJECT_NAME": "IONOSFERA-M 4", "OBJECT_ID": "2025-155B", "EPOCH": "2025-12-09T20:41:21.012864", "MEAN_MOTION": 14.21441093, "ECCENTRICITY": 0.0001662, "INCLINATION": 98.5777, "RA_OF_ASC_NODE": 305.7292, "ARG_OF_PERICENTER": 66.2764, "MEAN_ANOMALY": 293.8588, "EPHEMERIS_TYPE": 0, "CLASSIFICATION_TYPE": "U", "NORAD_CAT_ID": 64877, "ELEMENT_SET_NO": 999, "REV_AT_EPOCH": 1950, "BSTAR": 0.00010415, "MEAN_MOTION_DOT": 1.85e-06, "MEAN_MOTION_DDOT": 0}, "tle": {"line1": "1 64877U 25155B   25343.86204876  .00000185  00000+0  10415-3 0  9995", "line2": "2 64877  98.5777 305.7292 0001662  66.2764 293.8588 14.21441093 19508"}}, "geometry": {"type": "Point", "coordinates": [134.46908484211266, 43.970352292562794]}}, {"type": "Feature", "properties": {"norad_id": 64899, "name": "MICROCARB", "group": "resource", "lat": -15.325958564851039, "lon": -122.58371156574314, "alt_km": 650.5795239859199, "timestamp": "2025-12-10T05:46:13.455362+00:00", "meta": {"OBJECT_NAME": "MICROCARB", "OBJECT_ID": "2025-156A", "EPOCH": "2025-12-09T10:56:29.938848", "MEAN_MOTION": 14.72049485, "ECCENTRICITY": 0.00169337, "INCLINATION": 98.0028, "RA_OF_ASC_NODE": 58.854, "ARG_OF_PERICENTER": 154.8146, "MEAN_ANOMALY": 205.389, "EPHEMERIS_TYPE": 0, "CLASSIFICATION_TYPE": "U", "NORAD_CAT_ID": 64899, "ELEMENT_SET_NO": 999, "REV_AT_EPOCH": 2005, "BSTAR": 0.00022635085, "MEAN_MOTION_DOT": 1.375e-05, "MEAN_MOTION_DDOT": 0}, "tle": {"line1": "1 64899U 25156A   25343.45590207  .00001375  00000+0  22635-3 0  9990", "line2": "2 64899  98.0028  58.8540 0016933 154.8146 205.3890 14.72049485 20054"}}, "geometry": {"type": "Point", "coordinates": [-122.58371156574314, -15.325958564851039]}}, {"type": "Feature", "properties": {"norad_id": 64900, "name": "CO3D 3", "group": "resource", "lat": 15.461032420937658, "lon": -117.28727552672761, "alt_km": 505.76399246887013, "timestamp": "2025-12-10T05:46:13.455372+00:00", "meta": {"OBJECT_NAME": "CO3D 3", "OBJECT_ID": "2025-156B", "EPOCH": "2025-12-09T19:34:17.738112", "MEAN_MOTION": 15.2018766, "ECCENTRICITY": 0.0001293, "INCLINATION": 97.4343, "RA_OF_ASC_NODE": 60.2241, "ARG_OF_PERICENTER": 99.1307, "MEAN_ANOMALY": 261.0074, "EPHEMERIS_TYPE": 0, "CLASSIFICATION_TYPE": "U", "NORAD_CAT_ID": 64900, "ELEMENT_SET_NO": 999, "REV_AT_EPOCH": 2076, "BSTAR": 0.0004532, "MEAN_MOTION_DOT": 9.752e-05, "MEAN_MOTION_DDOT": 0}, "tle": {"line1": "1 64900U 25156B   25343.81548308  .00009752  00000+0  45320-3 0  9991", "line2": "2 64900  97.4343  60.2241 0001293  99.1307 261.0074 15.20187660 20761"}}, "geometry": {"type": "Point", "coordinates": [-117.28727552672761, 15.461032420937658]}}]}